[
  {
    "COMMENT": "GENERATED VIA SPACETRACK.ORG API",
    "ORIGINATOR": "18 SPCS",
    "NORAD_CAT_ID": "54754",
    "OBJECT_NAME": "SWOT",
    "OBJECT_TYPE": "PAYLOAD",
    "CLASSIFICATION_TYPE": "U",
    "INTLDES": "22173A",
    "EPOCH": "2023-04-29 19:10:04",
    "EPOCH_MICROSECONDS": "599840",
    "MEAN_MOTION": "14.09853877",
    "ECCENTRICITY": "0.0001102",
    "INCLINATION": "77.6042",
    "RA_OF_ASC_NODE": "141.7363",
    "ARG_OF_PERICENTER": "209.0884",
    "MEAN_ANOMALY": "151.0212",
    "EPHEMERIS_TYPE": "0",
    "ELEMENT_SET_NO": "999",
    "REV_AT_EPOCH": "1892",
    "BSTAR": "0.00013464",
    "MEAN_MOTION_DOT": "0.00000234",
    "MEAN_MOTION_DDOT": "0",
    "FILE": "3896756",
    "TLE_LINE0": "0 SWOT",
    "TLE_LINE1": "1 54754U 22173A   23119.79866435  .00000234  00000-0  13464-3 0  9994",
    "TLE_LINE2": "2 54754  77.6042 141.7363 0001102 209.0884 151.0212 14.09853877 18927",
    "OBJECT_ID": "2022-173A",
    "OBJECT_NUMBER": "54754",
    "SEMIMAJOR_AXIS": "7238.009",
    "PERIOD": "102.138",
    "APOGEE": "860.671",
    "PERIGEE": "859.076",
    "DECAYED": "0"
  },
  {
    "COMMENT": "GENERATED VIA SPACETRACK.ORG API",
    "ORIGINATOR": "18 SPCS",
    "NORAD_CAT_ID": "54754",
    "OBJECT_NAME": "SWOT",
    "OBJECT_TYPE": "PAYLOAD",
    "CLASSIFICATION_TYPE": "U",
    "INTLDES": "22173A",
    "EPOCH": "2023-04-30 13:54:08",
    "EPOCH_MICROSECONDS": "571168",
    "MEAN_MOTION": "14.09854208",
    "ECCENTRICITY": "0.0001106",
    "INCLINATION": "77.6041",
    "RA_OF_ASC_NODE": "140.6651",
    "ARG_OF_PERICENTER": "208.7272",
    "MEAN_ANOMALY": "151.3824",
    "EPHEMERIS_TYPE": "0",
    "ELEMENT_SET_NO": "999",
    "REV_AT_EPOCH": "1903",
    "BSTAR": "0.000129",
    "MEAN_MOTION_DOT": "0.00000224",
    "MEAN_MOTION_DDOT": "0",
    "FILE": "3897442",
    "TLE_LINE0": "0 SWOT",
    "TLE_LINE1": "1 54754U 22173A   23120.57926587  .00000224  00000-0  12900-3 0  9990",
    "TLE_LINE2": "2 54754  77.6041 140.6651 0001106 208.7272 151.3824 14.09854208 19039",
    "OBJECT_ID": "2022-173A",
    "OBJECT_NUMBER": "54754",
    "SEMIMAJOR_AXIS": "7238.008",
    "PERIOD": "102.138",
    "APOGEE": "860.673",
    "PERIGEE": "859.072",
    "DECAYED": "0"
  },
  {
    "COMMENT": "GENERATED VIA SPACETRACK.ORG API",
    "ORIGINATOR": "18 SPCS",
    "NORAD_CAT_ID": "54754",
    "OBJECT_NAME": "SWOT",
    "OBJECT_TYPE": "PAYLOAD",
    "CLASSIFICATION_TYPE": "U",
    "INTLDES": "22173A",
    "EPOCH": "2023-04-30 20:42:53",
    "EPOCH_MICROSECONDS": "646624",
    "MEAN_MOTION": "14.09854351",
    "ECCENTRICITY": "0.0001106",
    "INCLINATION": "77.6041",
    "RA_OF_ASC_NODE": "140.2756",
    "ARG_OF_PERICENTER": "208.5142",
    "MEAN_ANOMALY": "151.5955",
    "EPHEMERIS_TYPE": "0",
    "ELEMENT_SET_NO": "999",
    "REV_AT_EPOCH": "1907",
    "BSTAR": "0.00013271",
    "MEAN_MOTION_DOT": "0.00000231",
    "MEAN_MOTION_DDOT": "0",
    "FILE": "3897663",
    "TLE_LINE0": "0 SWOT",
    "TLE_LINE1": "1 54754U 22173A   23120.86312091  .00000231  00000-0  13271-3 0  9991",
    "TLE_LINE2": "2 54754  77.6041 140.2756 0001106 208.5142 151.5955 14.09854351 19075",
    "OBJECT_ID": "2022-173A",
    "OBJECT_NUMBER": "54754",
    "SEMIMAJOR_AXIS": "7238.007",
    "PERIOD": "102.138",
    "APOGEE": "860.673",
    "PERIGEE": "859.072",
    "DECAYED": "0"
  },
  {
    "COMMENT": "GENERATED VIA SPACETRACK.ORG API",
    "ORIGINATOR": "18 SPCS",
    "NORAD_CAT_ID": "54754",
    "OBJECT_NAME": "SWOT",
    "OBJECT_TYPE": "PAYLOAD",
    "CLASSIFICATION_TYPE": "U",
    "INTLDES": "22173A",
    "EPOCH": "2023-05-01 13:44:46",
    "EPOCH_MICROSECONDS": "323168",
    "MEAN_MOTION": "14.09854688",
    "ECCENTRICITY": "0.0001111",
    "INCLINATION": "77.6041",
    "RA_OF_ASC_NODE": "139.3018",
    "ARG_OF_PERICENTER": "208.2544",
    "MEAN_ANOMALY": "151.8553",
    "EPHEMERIS_TYPE": "0",
    "ELEMENT_SET_NO": "999",
    "REV_AT_EPOCH": "1917",
    "BSTAR": "0.00013298",
    "MEAN_MOTION_DOT": "0.00000231",
    "MEAN_MOTION_DDOT": "0",
    "FILE": "3898258",
    "TLE_LINE0": "0 SWOT",
    "TLE_LINE1": "1 54754U 22173A   23121.57275837  .00000231  00000-0  13298-3 0  9995",
    "TLE_LINE2": "2 54754  77.6041 139.3018 0001111 208.2544 151.8553 14.09854688 19175",
    "OBJECT_ID": "2022-173A",
    "OBJECT_NUMBER": "54754",
    "SEMIMAJOR_AXIS": "7238.006",
    "PERIOD": "102.138",
    "APOGEE": "860.675",
    "PERIGEE": "859.067",
    "DECAYED": "0"
  },
  {
    "COMMENT": "GENERATED VIA SPACETRACK.ORG API",
    "ORIGINATOR": "18 SPCS",
    "NORAD_CAT_ID": "54754",
    "OBJECT_NAME": "SWOT",
    "OBJECT_TYPE": "PAYLOAD",
    "CLASSIFICATION_TYPE": "U",
    "INTLDES": "22173A",
    "EPOCH": "2023-05-01 20:33:31",
    "EPOCH_MICROSECONDS": "390848",
    "MEAN_MOTION": "14.09854826",
    "ECCENTRICITY": "0.0001109",
    "INCLINATION": "77.6041",
    "RA_OF_ASC_NODE": "138.9122",
    "ARG_OF_PERICENTER": "208.046",
    "MEAN_ANOMALY": "152.0637",
    "EPHEMERIS_TYPE": "0",
    "ELEMENT_SET_NO": "999",
    "REV_AT_EPOCH": "1921",
    "BSTAR": "0.00013503",
    "MEAN_MOTION_DOT": "0.00000235",
    "MEAN_MOTION_DDOT": "0",
    "FILE": "3898518",
    "TLE_LINE0": "0 SWOT",
    "TLE_LINE1": "1 54754U 22173A   23121.85661332  .00000235  00000-0  13503-3 0  9998",
    "TLE_LINE2": "2 54754  77.6041 138.9122 0001109 208.0460 152.0637 14.09854826 19213",
    "OBJECT_ID": "2022-173A",
    "OBJECT_NUMBER": "54754",
    "SEMIMAJOR_AXIS": "7238.006",
    "PERIOD": "102.138",
    "APOGEE": "860.673",
    "PERIGEE": "859.068",
    "DECAYED": "0"
  },
  {
    "COMMENT": "GENERATED VIA SPACETRACK.ORG API",
    "ORIGINATOR": "18 SPCS",
    "NORAD_CAT_ID": "54754",
    "OBJECT_NAME": "SWOT",
    "OBJECT_TYPE": "PAYLOAD",
    "CLASSIFICATION_TYPE": "U",
    "INTLDES": "22173A",
    "EPOCH": "2023-05-01 23:57:53",
    "EPOCH_MICROSECONDS": "923392",
    "MEAN_MOTION": "14.09854901",
    "ECCENTRICITY": "0.0001109",
    "INCLINATION": "77.6041",
    "RA_OF_ASC_NODE": "138.7175",
    "ARG_OF_PERICENTER": "207.9781",
    "MEAN_ANOMALY": "152.1317",
    "EPHEMERIS_TYPE": "0",
    "ELEMENT_SET_NO": "999",
    "REV_AT_EPOCH": "1923",
    "BSTAR": "0.00013538",
    "MEAN_MOTION_DOT": "0.00000235",
    "MEAN_MOTION_DDOT": "0",
    "FILE": "3898478",
    "TLE_LINE0": "0 SWOT",
    "TLE_LINE1": "1 54754U 22173A   23121.99854078  .00000235  00000-0  13538-3 0  9992",
    "TLE_LINE2": "2 54754  77.6041 138.7175 0001109 207.9781 152.1317 14.09854901 19235",
    "OBJECT_ID": "2022-173A",
    "OBJECT_NUMBER": "54754",
    "SEMIMAJOR_AXIS": "7238.005",
    "PERIOD": "102.138",
    "APOGEE": "860.673",
    "PERIGEE": "859.068",
    "DECAYED": "0"
  },
  {
    "COMMENT": "GENERATED VIA SPACETRACK.ORG API",
    "ORIGINATOR": "18 SPCS",
    "NORAD_CAT_ID": "54754",
    "OBJECT_NAME": "SWOT",
    "OBJECT_TYPE": "PAYLOAD",
    "CLASSIFICATION_TYPE": "U",
    "INTLDES": "22173A",
    "EPOCH": "2023-05-02 13:35:24",
    "EPOCH_MICROSECONDS": "47520",
    "MEAN_MOTION": "14.09855157",
    "ECCENTRICITY": "0.0001109",
    "INCLINATION": "77.6041",
    "RA_OF_ASC_NODE": "137.9384",
    "ARG_OF_PERICENTER": "207.7349",
    "MEAN_ANOMALY": "152.3749",
    "EPHEMERIS_TYPE": "0",
    "ELEMENT_SET_NO": "999",
    "REV_AT_EPOCH": "1931",
    "BSTAR": "0.00013354",
    "MEAN_MOTION_DOT": "0.00000232",
    "MEAN_MOTION_DDOT": "0",
    "FILE": "3899068",
    "TLE_LINE0": "0 SWOT",
    "TLE_LINE1": "1 54754U 22173A   23122.56625055  .00000232  00000-0  13354-3 0  9990",
    "TLE_LINE2": "2 54754  77.6041 137.9384 0001109 207.7349 152.3749 14.09855157 19310",
    "OBJECT_ID": "2022-173A",
    "OBJECT_NUMBER": "54754",
    "SEMIMAJOR_AXIS": "7238.004",
    "PERIOD": "102.138",
    "APOGEE": "860.672",
    "PERIGEE": "859.067",
    "DECAYED": "0"
  },
  {
    "COMMENT": "GENERATED VIA SPACETRACK.ORG API",
    "ORIGINATOR": "18 SPCS",
    "NORAD_CAT_ID": "54754",
    "OBJECT_NAME": "SWOT",
    "OBJECT_TYPE": "PAYLOAD",
    "CLASSIFICATION_TYPE": "U",
    "INTLDES": "22173A",
    "EPOCH": "2023-05-02 20:24:09",
    "EPOCH_MICROSECONDS": "105696",
    "MEAN_MOTION": "14.09855287",
    "ECCENTRICITY": "0.000111",
    "INCLINATION": "77.6041",
    "RA_OF_ASC_NODE": "137.5489",
    "ARG_OF_PERICENTER": "207.4398",
    "MEAN_ANOMALY": "152.6701",
    "EPHEMERIS_TYPE": "0",
    "ELEMENT_SET_NO": "999",
    "REV_AT_EPOCH": "1935",
    "BSTAR": "0.00013411",
    "MEAN_MOTION_DOT": "0.00000233",
    "MEAN_MOTION_DDOT": "0",
    "FILE": "3899277",
    "TLE_LINE0": "0 SWOT",
    "TLE_LINE1": "1 54754U 22173A   23122.85010539  .00000233  00000-0  13411-3 0  9992",
    "TLE_LINE2": "2 54754  77.6041 137.5489 0001110 207.4398 152.6701 14.09855287 19354",
    "OBJECT_ID": "2022-173A",
    "OBJECT_NUMBER": "54754",
    "SEMIMAJOR_AXIS": "7238.004",
    "PERIOD": "102.138",
    "APOGEE": "860.672",
    "PERIGEE": "859.066",
    "DECAYED": "0"
  },
  {
    "COMMENT": "GENERATED VIA SPACETRACK.ORG API",
    "ORIGINATOR": "18 SPCS",
    "NORAD_CAT_ID": "54754",
    "OBJECT_NAME": "SWOT",
    "OBJECT_TYPE": "PAYLOAD",
    "CLASSIFICATION_TYPE": "U",
    "INTLDES": "22173A",
    "EPOCH": "2023-05-03 06:37:16",
    "EPOCH_MICROSECONDS": "687776",
    "MEAN_MOTION": "14.09855518",
    "ECCENTRICITY": "0.0001116",
    "INCLINATION": "77.6041",
    "RA_OF_ASC_NODE": "136.9646",
    "ARG_OF_PERICENTER": "207.1502",
    "MEAN_ANOMALY": "152.9597",
    "EPHEMERIS_TYPE": "0",
    "ELEMENT_SET_NO": "999",
    "REV_AT_EPOCH": "1941",
    "BSTAR": "0.00014007",
    "MEAN_MOTION_DOT": "0.00000244",
    "MEAN_MOTION_DDOT": "0",
    "FILE": "3899498",
    "TLE_LINE0": "0 SWOT",
    "TLE_LINE1": "1 54754U 22173A   23123.27588759  .00000244  00000-0  14007-3 0  9997",
    "TLE_LINE2": "2 54754  77.6041 136.9646 0001116 207.1502 152.9597 14.09855518 19412",
    "OBJECT_ID": "2022-173A",
    "OBJECT_NUMBER": "54754",
    "SEMIMAJOR_AXIS": "7238.003",
    "PERIOD": "102.138",
    "APOGEE": "860.676",
    "PERIGEE": "859.060",
    "DECAYED": "0"
  }
]